IXPE                    
1 49954U 21121A   23320.07191965  .00005357  00000+0  40057-3 0  9994
2 49954   0.2272 178.7297 0010105 346.4532 194.8463 14.95487342105784
